[{"OBJECT_NAME":"IRIDIUM 181","OBJECT_ID":"2023-068S","EPOCH":"2026-03-09T14:51:01.796256","MEAN_MOTION":14.43307145,"ECCENTRICITY":0.0002603,"INCLINATION":86.4454,"RA_OF_ASC_NODE":98.4288,"ARG_OF_PERICENTER":96.8881,"MEAN_ANOMALY":263.2616,"EPHEMERIS_TYPE":0,"CLASSIFICATION_TYPE":"U","NORAD_CAT_ID":56726,"ELEMENT_SET_NO":999,"REV_AT_EPOCH":14807,"BSTAR":1.6704e-5,"MEAN_MOTION_DOT":7.6e-7,"MEAN_MOTION_DDOT":0},{"OBJECT_NAME":"CZ-6A DEB","OBJECT_ID":"2024-140UL","EPOCH":"2026-03-09T12:50:11.350176","MEAN_MOTION":14.59917023,"ECCENTRICITY":0.00757699,"INCLINATION":88.8398,"RA_OF_ASC_NODE":270.9403,"ARG_OF_PERICENTER":238.5444,"MEAN_ANOMALY":120.8347,"EPHEMERIS_TYPE":0,"CLASSIFICATION_TYPE":"U","NORAD_CAT_ID":61323,"ELEMENT_SET_NO":999,"REV_AT_EPOCH":8032,"BSTAR":0.0015198329,"MEAN_MOTION_DOT":7.595e-5,"MEAN_MOTION_DDOT":0}]
